CCSDS_OMM_VERS = 2.0
CREATION_DATE  = 
ORIGINATOR     = 

OBJECT_NAME    = STARLINK-35452
OBJECT_ID      = 2025-236U
CENTER_NAME    = EARTH
REF_FRAME      = TEME
TIME_SYSTEM    = UTC
MEAN_ELEMENT_THEORY = SGP/SGP4

EPOCH          = 2025-11-15T12:00:02.998944
MEAN_MOTION    = 15.49347577
ECCENTRICITY   = .0001745
INCLINATION    = 53.1594
RA_OF_ASC_NODE = 275.9803
ARG_OF_PERICENTER = 82.2976
MEAN_ANOMALY   = 61.9481

EPHEMERIS_TYPE = 0
CLASSIFICATION_TYPE = U
NORAD_CAT_ID   = 66104
ELEMENT_SET_NO = 999
REV_AT_EPOCH   = 549
BSTAR          = -.17402E-2
MEAN_MOTION_DOT = -.96185E-3
MEAN_MOTION_DDOT = 0

CCSDS_OMM_VERS = 2.0
CREATION_DATE  = 
ORIGINATOR     = 

OBJECT_NAME    = STARLINK-35561
OBJECT_ID      = 2025-236V
CENTER_NAME    = EARTH
REF_FRAME      = TEME
TIME_SYSTEM    = UTC
MEAN_ELEMENT_THEORY = SGP/SGP4

EPOCH          = 2025-11-15T12:00:02.998944
MEAN_MOTION    = 15.49355402
ECCENTRICITY   = .0001674
INCLINATION    = 53.1593
RA_OF_ASC_NODE = 275.9722
ARG_OF_PERICENTER = 82.1872
MEAN_ANOMALY   = 65.8927

EPHEMERIS_TYPE = 0
CLASSIFICATION_TYPE = U
NORAD_CAT_ID   = 66105
ELEMENT_SET_NO = 999
REV_AT_EPOCH   = 543
BSTAR          = -.20984E-2
MEAN_MOTION_DOT = -.115638E-2
MEAN_MOTION_DDOT = 0

CCSDS_OMM_VERS = 2.0
CREATION_DATE  = 
ORIGINATOR     = 

OBJECT_NAME    = STARLINK-35584
OBJECT_ID      = 2025-236W
CENTER_NAME    = EARTH
REF_FRAME      = TEME
TIME_SYSTEM    = UTC
MEAN_ELEMENT_THEORY = SGP/SGP4

EPOCH          = 2025-11-15T12:00:02.998944
MEAN_MOTION    = 15.49353564
ECCENTRICITY   = .0001715
INCLINATION    = 53.1594
RA_OF_ASC_NODE = 275.9675
ARG_OF_PERICENTER = 83.2595
MEAN_ANOMALY   = 66.7403

EPHEMERIS_TYPE = 0
CLASSIFICATION_TYPE = U
NORAD_CAT_ID   = 66106
ELEMENT_SET_NO = 999
REV_AT_EPOCH   = 549
BSTAR          = -.20387E-2
MEAN_MOTION_DOT = -.112401E-2
MEAN_MOTION_DDOT = 0

CCSDS_OMM_VERS = 2.0
CREATION_DATE  = 
ORIGINATOR     = 

OBJECT_NAME    = STARLINK-35593
OBJECT_ID      = 2025-236X
CENTER_NAME    = EARTH
REF_FRAME      = TEME
TIME_SYSTEM    = UTC
MEAN_ELEMENT_THEORY = SGP/SGP4

EPOCH          = 2025-11-15T12:00:02.998944
MEAN_MOTION    = 15.49347918
ECCENTRICITY   = .0001789
INCLINATION    = 53.1593
RA_OF_ASC_NODE = 275.9637
ARG_OF_PERICENTER = 83.7062
MEAN_ANOMALY   = 68.2049

EPHEMERIS_TYPE = 0
CLASSIFICATION_TYPE = U
NORAD_CAT_ID   = 66107
ELEMENT_SET_NO = 999
REV_AT_EPOCH   = 549
BSTAR          = -.1792E-2
MEAN_MOTION_DOT = -.99004E-3
MEAN_MOTION_DDOT = 0

CCSDS_OMM_VERS = 2.0
CREATION_DATE  = 
ORIGINATOR     = 

OBJECT_NAME    = STARLINK-35590
OBJECT_ID      = 2025-236Y
CENTER_NAME    = EARTH
REF_FRAME      = TEME
TIME_SYSTEM    = UTC
MEAN_ELEMENT_THEORY = SGP/SGP4

EPOCH          = 2025-11-15T12:00:02.998944
MEAN_MOTION    = 15.49349022
ECCENTRICITY   = .0001625
INCLINATION    = 53.1592
RA_OF_ASC_NODE = 275.9556
ARG_OF_PERICENTER = 84.7824
MEAN_ANOMALY   = 70.9597

EPHEMERIS_TYPE = 0
CLASSIFICATION_TYPE = U
NORAD_CAT_ID   = 66108
ELEMENT_SET_NO = 999
REV_AT_EPOCH   = 543
BSTAR          = -.17699E-2
MEAN_MOTION_DOT = -.97801E-3
MEAN_MOTION_DDOT = 0

CCSDS_OMM_VERS = 2.0
CREATION_DATE  = 
ORIGINATOR     = 

OBJECT_NAME    = STARLINK-35545
OBJECT_ID      = 2025-236Z
CENTER_NAME    = EARTH
REF_FRAME      = TEME
TIME_SYSTEM    = UTC
MEAN_ELEMENT_THEORY = SGP/SGP4

EPOCH          = 2025-11-15T12:00:02.998944
MEAN_MOTION    = 15.49348759
ECCENTRICITY   = .0001646
INCLINATION    = 53.1594
RA_OF_ASC_NODE = 275.9596
ARG_OF_PERICENTER = 85.8555
MEAN_ANOMALY   = 67.9803

EPHEMERIS_TYPE = 0
CLASSIFICATION_TYPE = U
NORAD_CAT_ID   = 66109
ELEMENT_SET_NO = 999
REV_AT_EPOCH   = 549
BSTAR          = -.19179E-2
MEAN_MOTION_DOT = -.105833E-2
MEAN_MOTION_DDOT = 0

CCSDS_OMM_VERS = 2.0
CREATION_DATE  = 
ORIGINATOR     = 

OBJECT_NAME    = STARLINK-35427
OBJECT_ID      = 2025-236AA
CENTER_NAME    = EARTH
REF_FRAME      = TEME
TIME_SYSTEM    = UTC
MEAN_ELEMENT_THEORY = SGP/SGP4

EPOCH          = 2025-11-15T12:00:02.998944
MEAN_MOTION    = 15.49348389
ECCENTRICITY   = .0001646
INCLINATION    = 53.1594
RA_OF_ASC_NODE = 275.9510
ARG_OF_PERICENTER = 82.8925
MEAN_ANOMALY   = 74.7754

EPHEMERIS_TYPE = 0
CLASSIFICATION_TYPE = U
NORAD_CAT_ID   = 66110
ELEMENT_SET_NO = 999
REV_AT_EPOCH   = 549
BSTAR          = -.18482E-2
MEAN_MOTION_DOT = -.102055E-2
MEAN_MOTION_DDOT = 0

CCSDS_OMM_VERS = 2.0
CREATION_DATE  = 
ORIGINATOR     = 

OBJECT_NAME    = STARLINK-35574
OBJECT_ID      = 2025-236AB
CENTER_NAME    = EARTH
REF_FRAME      = TEME
TIME_SYSTEM    = UTC
MEAN_ELEMENT_THEORY = SGP/SGP4

EPOCH          = 2025-11-15T12:00:02.998944
MEAN_MOTION    = 15.49350858
ECCENTRICITY   = .0001668
INCLINATION    = 53.1592
RA_OF_ASC_NODE = 275.9474
ARG_OF_PERICENTER = 85.9895
MEAN_ANOMALY   = 73.5954

EPHEMERIS_TYPE = 0
CLASSIFICATION_TYPE = U
NORAD_CAT_ID   = 66111
ELEMENT_SET_NO = 999
REV_AT_EPOCH   = 543
BSTAR          = -.1932E-2
MEAN_MOTION_DOT = -.10661E-2
MEAN_MOTION_DDOT = 0

CCSDS_OMM_VERS = 2.0
CREATION_DATE  = 
ORIGINATOR     = 

OBJECT_NAME    = STARLINK-35531
OBJECT_ID      = 2025-236AC
CENTER_NAME    = EARTH
REF_FRAME      = TEME
TIME_SYSTEM    = UTC
MEAN_ELEMENT_THEORY = SGP/SGP4

EPOCH          = 2025-11-15T12:00:02.998944
MEAN_MOTION    = 15.49353079
ECCENTRICITY   = .0001705
INCLINATION    = 53.1590
RA_OF_ASC_NODE = 275.9395
ARG_OF_PERICENTER = 87.0590
MEAN_ANOMALY   = 76.3587

EPHEMERIS_TYPE = 0
CLASSIFICATION_TYPE = U
NORAD_CAT_ID   = 66112
ELEMENT_SET_NO = 999
REV_AT_EPOCH   = 549
BSTAR          = -.20073E-2
MEAN_MOTION_DOT = -.110698E-2
MEAN_MOTION_DDOT = 0

CCSDS_OMM_VERS = 2.0
CREATION_DATE  = 
ORIGINATOR     = 

OBJECT_NAME    = STARLINK-35491
OBJECT_ID      = 2025-236AD
CENTER_NAME    = EARTH
REF_FRAME      = TEME
TIME_SYSTEM    = UTC
MEAN_ELEMENT_THEORY = SGP/SGP4

EPOCH          = 2025-11-15T12:00:02.998944
MEAN_MOTION    = 15.49348682
ECCENTRICITY   = .0001692
INCLINATION    = 53.1592
RA_OF_ASC_NODE = 275.9436
ARG_OF_PERICENTER = 80.5094
MEAN_ANOMALY   = 80.9885

EPHEMERIS_TYPE = 0
CLASSIFICATION_TYPE = U
NORAD_CAT_ID   = 66113
ELEMENT_SET_NO = 999
REV_AT_EPOCH   = 549
BSTAR          = -.17998E-2
MEAN_MOTION_DOT = -.99425E-3
MEAN_MOTION_DDOT = 0

CCSDS_OMM_VERS = 2.0
CREATION_DATE  = 
ORIGINATOR     = 

OBJECT_NAME    = STARLINK-35496
OBJECT_ID      = 2025-237A
CENTER_NAME    = EARTH
REF_FRAME      = TEME
TIME_SYSTEM    = UTC
MEAN_ELEMENT_THEORY = SGP/SGP4

EPOCH          = 2025-11-15T12:00:02.998944
MEAN_MOTION    = 15.49319065
ECCENTRICITY   = .0001243
INCLINATION    = 53.1603
RA_OF_ASC_NODE = 216.0021
ARG_OF_PERICENTER = 92.8656
MEAN_ANOMALY   = 255.4193

EPHEMERIS_TYPE = 0
CLASSIFICATION_TYPE = U
NORAD_CAT_ID   = 66114
ELEMENT_SET_NO = 999
REV_AT_EPOCH   = 509
BSTAR          = -.9538E-3
MEAN_MOTION_DOT = -.53154E-3
MEAN_MOTION_DDOT = 0

CCSDS_OMM_VERS = 2.0
CREATION_DATE  = 
ORIGINATOR     = 

OBJECT_NAME    = STARLINK-35428
OBJECT_ID      = 2025-237B
CENTER_NAME    = EARTH
REF_FRAME      = TEME
TIME_SYSTEM    = UTC
MEAN_ELEMENT_THEORY = SGP/SGP4

EPOCH          = 2025-11-15T12:00:02.998944
MEAN_MOTION    = 15.45619440
ECCENTRICITY   = .0001031
INCLINATION    = 53.1601
RA_OF_ASC_NODE = 216.0087
ARG_OF_PERICENTER = 116.0351
MEAN_ANOMALY   = 228.7905

EPHEMERIS_TYPE = 0
CLASSIFICATION_TYPE = U
NORAD_CAT_ID   = 66115
ELEMENT_SET_NO = 999
REV_AT_EPOCH   = 509
BSTAR          = -.46164E-1
MEAN_MOTION_DOT = -.2013462E-1
MEAN_MOTION_DDOT = 0

