STARLINK-35452          
1 66104U 25236U   25319.50003471 -.00096185  00000+0 -17402-2 0  9991
2 66104  53.1594 275.9803 0001745  82.2976  61.9481 15.49347577  5490
STARLINK-35561          
1 66105U 25236V   25319.50003471 -.00115638  00000+0 -20984-2 0  9996
2 66105  53.1593 275.9722 0001674  82.1872  65.8927 15.49355402  5433
STARLINK-35584          
1 66106U 25236W   25319.50003471 -.00112401  00000+0 -20387-2 0  9999
2 66106  53.1594 275.9675 0001715  83.2595  66.7403 15.49353564  5494
STARLINK-35593          
1 66107U 25236X   25319.50003471 -.00099004  00000+0 -17920-2 0  9992
2 66107  53.1593 275.9637 0001789  83.7062  68.2049 15.49347918  5496
STARLINK-35590          
1 66108U 25236Y   25319.50003471 -.00097801  00000+0 -17699-2 0  9999
2 66108  53.1592 275.9556 0001625  84.7824  70.9597 15.49349022  5432
STARLINK-35545          
1 66109U 25236Z   25319.50003471 -.00105833  00000+0 -19179-2 0  9990
2 66109  53.1594 275.9596 0001646  85.8555  67.9803 15.49348759  5493
STARLINK-35427          
1 66110U 25236AA  25319.50003471 -.00102055  00000+0 -18482-2 0  9991
2 66110  53.1594 275.9510 0001646  82.8925  74.7754 15.49348389  5499
STARLINK-35574          
1 66111U 25236AB  25319.50003471 -.00106610  00000+0 -19320-2 0  9995
2 66111  53.1592 275.9474 0001668  85.9895  73.5954 15.49350858  5438
STARLINK-35531          
1 66112U 25236AC  25319.50003471 -.00110698  00000+0 -20073-2 0  9994
2 66112  53.1590 275.9395 0001705  87.0590  76.3587 15.49353079  5493
STARLINK-35491          
1 66113U 25236AD  25319.50003471 -.00099425  00000+0 -17998-2 0  9991
2 66113  53.1592 275.9436 0001692  80.5094  80.9885 15.49348682  5490
STARLINK-35496          
1 66114U 25237A   25319.50003471 -.00053154  00000+0 -95380-3 0  9994
2 66114  53.1603 216.0021 0001243  92.8656 255.4193 15.49319065  5092
STARLINK-35428          
1 66115U 25237B   25319.50003471 -.02013462  00000+0 -46164-1 0  9999
2 66115  53.1601 216.0087 0001031 116.0351 228.7905 15.45619440  5099
